PELICAN-7               
1 69017U 26100AP  26200.98839865  .00001750  00000+0  75529-4 0  9992
2 69017  97.3811  98.3610 0003289  80.0808 280.0801 15.23842166 11804
EDDA-1                  
1 69018U 26100AQ  26200.92848477  .00011747  00000+0  48299-3 0  9996
2 69018  97.3707  98.2652 0003550 114.4760 245.6848 15.24312337 11805
PELICAN-9               
1 69019U 26100AR  26200.70553998  .00001082  00000+0  49018-4 0  9996
2 69019  97.3534  97.8912 0002204 105.4648 254.6832 15.22942118 11759
